OSCAR 7 (AO-7)          
1 07530U 74089B   20277.92962448 -.00000047  00000-0 -82434-5 0  9994
2 07530 101.8141 247.1142 0012212 153.5529 269.3042 12.53645382 99588
UOSAT 2 (UO-11)         
1 14781U 84021B   20277.90648104  .00000069  00000-0  14486-4 0  9998
2 14781  97.5910 284.4879 0007940 195.0281 165.0698 14.83196160947905
LUSAT (LO-19)           
1 20442U 90005G   20277.81170498 -.00000004  00000-0  15162-4 0  9996
2 20442  98.7024 225.4773 0011410 190.8415 169.2524 14.32962201604075
EYESAT A (AO-27)        
1 22825U 93061C   20277.88880197 -.00000012  00000-0  13426-4 0  9999
2 22825  98.9267 283.0855 0009400  64.7921 295.4234 14.30093879409315
ITAMSAT (IO-26)         
1 22826U 93061D   20277.91972000 -.00000005  00000-0  15840-4 0  9993
2 22826  98.9207 283.0520 0009810  53.5658 306.6426 14.30430415409552
RADIO ROSTO (RS-15)     
1 23439U 94085A   20277.94503071 -.00000054  00000-0 -33151-3 0  9991
2 23439  64.8147  70.7993 0151934  21.9778 338.7572 11.27569094 61416
JAS-2 (FO-29)           
1 24278U 96046B   20277.86608256 -.00000028  00000-0  52171-5 0  9999
2 24278  98.5891  13.5336 0351305  94.1536 269.9828 13.53099600191541
TECHSAT 1B (GO-32)      
1 25397U 98043D   20277.88697376 -.00000012  00000-0  14141-4 0  9991
2 25397  98.7361 218.5967 0002355  96.9229 263.2217 14.23691436154981
ISS (ZARYA)             
1 25544U 98067A   20278.12074228  .00001713  00000-0  39441-4 0  9992
2 25544  51.6443 169.4616 0001157 104.3103   8.9677 15.48828299248900
PCSAT (NO-44)           
1 26931U 01043C   20277.88296176 -.00000048  00000-0  13315-4 0  9994
2 26931  67.0508 222.5760 0006647 276.2095  83.8249 14.30589142992581
SAUDISAT 1C (SO-50)     
1 27607U 02058C   20277.73265912  .00000013  00000-0  22206-4 0  9990
2 27607  64.5566  43.3105 0035210 140.0747 220.2955 14.75664085956704
CUTE-1 (CO-55)          
1 27844U 03031E   20277.91332596  .00000040  00000-0  37511-4 0  9993
2 27844  98.6834 284.0165 0011001 100.4633 259.7785 14.22259080895515
CUBESAT XI-IV (CO-57)   
1 27848U 03031J   20277.54934273  .00000038  00000-0  37229-4 0  9999
2 27848  98.6900 284.2229 0010801 112.7990 247.4329 14.21843312895339
MOZHAYETS 4 (RS-22)     
1 27939U 03042A   20277.84476211  .00000145  00000-0  34698-4 0  9994
2 27939  98.1061  51.3196 0013270  16.7136 343.4505 14.66890596909904
CUBESAT XI-V            
1 28895U 05043F   20277.89615225  .00000140  00000-0  35694-4 0  9996
2 28895  98.0255  51.3093 0015588 301.1500  58.8174 14.63804910796473
CUTE-1.7+APD II (CO-65) 
1 32785U 08021C   20277.76311008  .00000239  00000-0  31249-4 0  9997
2 32785  97.5831 261.0708 0014147 129.6816 230.5652 14.88523575673988
DELFI-C3 (DO-64)        
1 32789U 08021G   20277.83592530  .00001217  00000-0  83033-4 0  9995
2 32789  97.4089 316.8061 0010566 308.8635  51.1650 15.07972551678140
SEEDS II (CO-66)        
1 32791U 08021J   20277.77755017  .00000407  00000-0  46370-4 0  9995
2 32791  97.5490 267.1890 0014835 100.2650 260.0242 14.91122382674529
YUBILEINY (RS-30)       
1 32953U 08025A   20277.88859906  .00000037  00000-0  19437-3 0  9995
2 32953  82.5047 210.4684 0018613 173.8491 186.2812 12.43098461561106
KKS-1 (KISEKI)          
1 33499U 09002H   20277.88211107  .00000091  00000-0  21252-4 0  9991
2 33499  98.3023 135.5836 0009927 133.5730 226.6304 14.75563793628576
SWISSCUBE               
1 35932U 09051B   20277.49114687  .00000133  00000-0  41003-4 0  9994
2 35932  98.6119 103.2657 0008043 148.5664 211.6015 14.56429580585559
BEESAT-1                
1 35933U 09051C   20277.46806673  .00000107  00000-0  35047-4 0  9997
2 35933  98.6105 105.1093 0006020 158.2985 201.8468 14.56500863585701
ITUPSAT1                
1 35935U 09051E   20277.52627853  .00000085  00000-0  30595-4 0  9995
2 35935  98.6211 105.3537 0008357 161.0326 199.1183 14.55643111585393
XIWANG-1 (HOPE-1)       
1 36122U 09072B   20277.93958339 -.00000024  00000-0  47841-4 0  9994
2 36122 100.1024 263.6007 0007327 338.3977  21.6827 13.16356654519143
JUGNU                   
1 37839U 11058B   20277.86570127  .00000322  00000-0  29728-4 0  9998
2 37839  19.9625 345.3061 0018948 142.9127  13.6082 14.12690057464135
SRMSAT                  
1 37841U 11058D   20277.59064480  .00000364  00000-0  55073-4 0  9999
2 37841  19.9728  53.5370 0011891 352.2046  94.6257 14.10674016463439
M-CUBED & EXP-1 PRIME   
1 37855U 11061F   20277.90543234  .00001844  00000-0  97342-4 0  9991
2 37855 101.7241  62.2824 0170077 113.0138 248.9113 15.06603333487534
STRAND-1                
1 39090U 13009E   20277.84222734  .00000023  00000-0  23298-4 0  9997
2 39090  98.4472 119.8016 0008586 329.1607  30.9073 14.35146306398238
SOMP                    
1 39134U 13015E   20277.52379976  .00001373  00000-0  69831-4 0  9991
2 39134  64.8628 287.2000 0024331 227.6620 132.2447 15.21325287412111
BEESAT-3                
1 39135U 13015F   20277.53016137  .00001077  00000-0  61387-4 0  9999
2 39135  64.8673 312.3222 0030603 226.0569 133.8032 15.18398063412016
BEESAT-2                
1 39136U 13015G   20277.55525418  .00001284  00000-0  72244-4 0  9993
2 39136  64.8745 317.6037 0035278 268.0163  91.6923 15.17786703411524
ZACUBE-1 (TSHEPISOSAT)  
1 39417U 13066B   20277.91733834  .00000214  00000-0  33260-4 0  9991
2 39417  97.5719 269.9416 0057297 282.6654  76.8157 14.81327631371094
GOMX-1                  
1 39430U 13066Q   20277.85785077  .00000188  00000-0  43144-4 0  9997
2 39430  97.7948 209.8628 0149901 202.6680 156.7874 14.59442645365611
CUBEBUG-2 (LO-74)       
1 39440U 13066AA  20277.88648256  .00000292  00000-0  47430-4 0  9996
2 39440  97.6425 254.4575 0079875 349.2790  10.6715 14.76062923368576
FUNCUBE-1 (AO-73)       
1 39444U 13066AE  20277.91984414  .00000284  00000-0  41108-4 0  9990
2 39444  97.5653 272.2306 0056352 274.1170  85.3605 14.82191834369439
UWE-3                   
1 39446U 13066AG  20277.89239759  .00000256  00000-0  40601-4 0  9990
2 39446  97.6084 261.6083 0068890 317.0567  42.5279 14.78596259368594
SPROUT                  
1 39770U 14029E   20277.82955332  .00001249  00000-0  14254-3 0  9992
2 39770  97.9030  23.6900 0008644 339.7591  20.3268 14.87890387345171
UNISAT-6                
1 40012U 14033C   20277.87305850  .00000194  00000-0  35975-4 0  9999
2 40012  97.6983 127.4480 0058640  11.3325 348.9189 14.74161130338391
DUCHIFAT-1              
1 40021U 14033M   20277.86783027  .00000363  00000-0  42637-4 0  9995
2 40021  97.9458 209.7879 0011542 293.8263  66.1745 14.90990550342043
QB50P1                  
1 40025U 14033R   20277.83687095  .00000293  00000-0  36938-4 0  9993
2 40025  97.9147 202.1315 0011277 307.5827  52.4366 14.89199299341223
NUDT-PHONESAT           
1 40900U 15049B   20277.83472910  .00003376  00000-0  13996-3 0  9994
2 40900  97.4309 287.8727 0011506 330.2957 112.8104 15.24529745279706
ZDPS 2A                 
1 40901U 15049C   20277.81017991  .00001909  00000-0  95633-4 0  9996
2 40901  97.4639 282.1199 0013474   3.8572  73.3195 15.18516550279014
ZDPS 2B                 
1 40902U 15049D   20277.86577641  .00001969  00000-0  98547-4 0  9998
2 40902  97.4632 279.4461 0013408   1.1673 116.0785 15.18518404278995
XW-2A                   
1 40903U 15049E   20277.79181252  .00002860  00000-0  65662-4 0  9993
2 40903  97.2768 326.7752 0011513 224.3977 247.5312 15.43493769283181
KAITUO 1A               
1 40904U 15049F   20277.85988521  .00000810  00000-0  45794-4 0  9992
2 40904  97.4805 277.2974 0015061  14.0224 105.1813 15.15803988278662
2015-049G               
1 40905U 15049G   20277.88523345  .00000379  00000-0  24021-4 0  9995
2 40905  97.4899 274.4830 0016115  11.2369  54.2048 15.14638838278490
XW-2C                   
1 40906U 15049H   20277.81316310  .00000915  00000-0  50718-4 0  9999
2 40906  97.4814 277.5944 0014952   4.9313  73.2418 15.16198851278673
XW-2D                   
1 40907U 15049J   20277.86294076  .00001259  00000-0  68046-4 0  9994
2 40907  97.4793 277.3679 0014105   2.1378 115.4353 15.16450034278709
LILACSAT-2              
1 40908U 15049K   20277.82694868  .00000294  00000-0  19713-4 0  9999
2 40908  97.4956 275.5355 0016427  12.6287  71.7610 15.14115649278399
XW-2F                   
1 40910U 15049M   20277.80196009  .00001725  00000-0  87652-4 0  9991
2 40910  97.4713 280.0428 0014287 350.8454 133.2537 15.18147310278778
XW-2B                   
1 40911U 15049N   20277.85257125  .00001065  00000-0  58195-4 0  9991
2 40911  97.4802 278.0554 0014387   2.3345 116.9415 15.16372754278597
KAITUO 1B               
1 40912U 15049P   20277.81526701  .00001813  00000-0  85841-4 0  9996
2 40912  97.4496 284.3043 0013647 326.2133 118.6892 15.20568322279188
TIANWANG 1C (TW-1C)     
1 40926U 15051B   20277.79826934  .00042693  00000-0  33970-3 0  9998
2 40926  97.0715 330.5506 0005932  53.2281  39.2275 15.71083430284008
TIANWANG 1A (TW-1A)     
1 40928U 15051D   20277.84840367  .00004380  00000-0  10043-3 0  9999
2 40928  97.1033 303.0356 0011308 143.0906 342.2442 15.43197304282082
LAPAN-A2                
1 40931U 15052B   20275.53602549  .00001475  00000-0  11639-3 0  9990
2 40931   5.9921 298.9043 0013824 344.5740  75.4717 14.76649979270962
E-ST@R-II               
1 41459U 16025D   20277.85591226  .00003765  00000-0  19052-3 0  9994
2 41459  98.1143  33.5697 0164054 206.4377 152.8370 15.06716916243763
AAUSAT 4                
1 41460U 16025E   20277.82348791  .00004657  00000-0  22734-3 0  9992
2 41460  98.1103  36.2628 0152344 194.0975 165.5979 15.09150683243986
NUSAT-1 (FRESCO)        
1 41557U 16033B   20277.84267569  .00002141  00000-0  80248-4 0  9994
2 41557  97.4027   7.3694 0015051  68.0590  75.8653 15.28274189242326
BEESAT-4                
1 41619U 16040W   20277.88449822  .00001687  00000-0  71827-4 0  9996
2 41619  97.3081 334.8026 0011909 149.9306 210.2618 15.24284705225916
